0 BRAZILSAT 2
1 16650U 86026B   13283.32944901 -.00000033  00000-0  10000-3 0  4748
2 16650 013.5102 033.5407 0002438 147.6177 212.3970 00.99636507 80573
0 BRAZILSAT 2
1 16650U 86026B   13285.33666323 -.00000012  00000-0  10000-3 0  4758
2 16650 013.5130 033.5174 0002463 144.8478 215.1663 00.99636499 80598
0 BRAZILSAT 2
1 16650U 86026B   13287.34385873  .00000009  00000-0  10000-3 0  4765
2 16650 013.5158 033.4939 0002442 141.8004 218.2064 00.99636598 80617
0 BRAZILSAT 2
1 16650U 86026B   13289.35104965  .00000030  00000-0  10000-3 0  4774
2 16650 013.5186 033.4706 0002435 135.4363 224.5610 00.99636789 80630
0 BRAZILSAT 2
1 16650U 86026B   13291.35822885  .00000049  00000-0  10000-3 0  4786
2 16650 013.5214 033.4471 0002424 134.3087 225.6787 00.99637130 80650
0 BRAZILSAT 2
1 16650U 86026B   13293.36541641  .00000066  00000-0  10000-3 0  4797
2 16650 013.5242 033.4237 0002411 134.2253 225.7584 00.99637588 80676
0 BRAZILSAT 2
1 16650U 86026B   13295.37261444  .00000079  00000-0  10000-3 0  4806
2 16650 013.5271 033.4005 0002464 133.0215 226.9677 00.99638152 80690
